OBJECT_NAME,OBJECT_ID,EPOCH,MEAN_MOTION,ECCENTRICITY,INCLINATION,RA_OF_ASC_NODE,ARG_OF_PERICENTER,MEAN_ANOMALY,EPHEMERIS_TYPE,CLASSIFICATION_TYPE,NORAD_CAT_ID,ELEMENT_SET_NO,REV_AT_EPOCH,BSTAR,MEAN_MOTION_DOT,MEAN_MOTION_DDOT
HAWK-6B,2023-011A,2026-07-07T04:23:03.144192,15.23107517,.0002974,40.4971,235.4309,196.2982,163.7732,0,U,55324,999,19089,.12673E-3,.2857E-4,0
HAWK-6C,2023-011C,2026-07-07T04:22:09.481152,15.23107992,.000333,40.4956,232.2705,182.2608,177.8186,0,U,55326,999,19090,.12982E-3,.2932E-4,0
HAWK-6A,2023-011D,2026-07-07T04:22:12.364320,15.23109109,.0002861,40.4967,233.8972,181.1255,178.9549,0,U,55327,999,19090,.12874E-3,.2906E-4,0
HAWK-7A,2023-054P,2026-07-06T18:19:27.435072,15.27572982,.00024,97.2674,74.6028,8.5213,351.6067,0,U,56191,999,18001,.18412E-3,.4892E-4,0
HAWK-7B,2023-054R,2026-07-07T03:45:19.090080,15.27578846,.0002208,97.2702,73.2569,31.2593,328.8778,0,U,56193,999,18007,.16063E-3,.4259E-4,0
HAWK-7C,2023-054Y,2026-07-06T18:19:11.400096,15.27574338,.0001922,97.2677,73.6361,19.6555,340.4758,0,U,56200,999,18001,.18249E-3,.4848E-4,0
