HAWK-6B                 
1 55324U 23011A   26188.18267528  .00002857  00000+0  12673-3 0  9993
2 55324  40.4971 235.4309 0002974 196.2982 163.7732 15.23107517190899
HAWK-6C                 
1 55326U 23011C   26188.18205418  .00002932  00000+0  12982-3 0  9992
2 55326  40.4956 232.2705 0003330 182.2608 177.8186 15.23107992190904
HAWK-6A                 
1 55327U 23011D   26188.18208755  .00002906  00000+0  12874-3 0  9991
2 55327  40.4967 233.8972 0002861 181.1255 178.9549 15.23109109190901
HAWK-7A                 
1 56191U 23054P   26187.76351198  .00004892  00000+0  18412-3 0  9991
2 56191  97.2674  74.6028 0002400   8.5213 351.6067 15.27572982180017
HAWK-7B                 
1 56193U 23054R   26188.15647095  .00004259  00000+0  16063-3 0  9998
2 56193  97.2702  73.2569 0002208  31.2593 328.8778 15.27578846180072
HAWK-7C                 
1 56200U 23054Y   26187.76332639  .00004848  00000+0  18249-3 0  9990
2 56200  97.2677  73.6361 0001922  19.6555 340.4758 15.27574338180010
